[{"OBJECT_NAME":"STARLINK-34816","OBJECT_ID":"2025-195K","EPOCH":"2026-03-09T17:15:45.880992","MEAN_MOTION":15.30189195,"ECCENTRICITY":0.00013731,"INCLINATION":53.1594,"RA_OF_ASC_NODE":258.3708,"ARG_OF_PERICENTER":34.8226,"MEAN_ANOMALY":325.2865,"EPHEMERIS_TYPE":0,"CLASSIFICATION_TYPE":"U","NORAD_CAT_ID":65467,"ELEMENT_SET_NO":999,"REV_AT_EPOCH":2999,"BSTAR":0.00051660617,"MEAN_MOTION_DOT":0.00014967,"MEAN_MOTION_DDOT":0},{"OBJECT_NAME":"FENGYUN 1C DEB","OBJECT_ID":"1999-025ETT","EPOCH":"2026-03-07T08:30:03.670560","MEAN_MOTION":15.28888299,"ECCENTRICITY":0.00158464,"INCLINATION":99.1103,"RA_OF_ASC_NODE":112.0072,"ARG_OF_PERICENTER":201.0032,"MEAN_ANOMALY":159.0553,"EPHEMERIS_TYPE":0,"CLASSIFICATION_TYPE":"U","NORAD_CAT_ID":38726,"ELEMENT_SET_NO":999,"REV_AT_EPOCH":71135,"BSTAR":0.013792546,"MEAN_MOTION_DOT":0.00409659,"MEAN_MOTION_DDOT":0}]
